{"type": "FeatureCollection", "features": [ {"type": "Feature", "properties": {"norad_id": 66910, "name": "1998-067XW", "group": "last-30-days", "lat": -17.390033501413843, "lon": 136.72736486677985, "alt_km": 418.0297463922843, "timestamp": "2025-12-10T23:33:11.624247+00:00", "meta": {"OBJECT_NAME": "1998-067XW", "OBJECT_ID": "1998-067XW", "EPOCH": "2025-12-10T11:16:54.563808", "MEAN_MOTION": 15.51350337, "ECCENTRICITY": 0.00055419, "INCLINATION": 51.6299, "RA_OF_ASC_NODE": 153.6351, "ARG_OF_PERICENTER": 197.1967, "MEAN_ANOMALY": 162.8836, "EPHEMERIS_TYPE": 0, "CLASSIFICATION_TYPE": "U", "NORAD_CAT_ID": 66910, "ELEMENT_SET_NO": 999, "REV_AT_EPOCH": 126, "BSTAR": 0.0013818348, "MEAN_MOTION_DOT": 0.00083191, "MEAN_MOTION_DDOT": 0}, "tle": {"line1": "1 66910U 98067XW  25344.47007597  .00083191  00000+0  13818-2 0  9993", "line2": "2 66910  51.6299 153.6351 0005541 197.1967 162.8836 15.51350337  1261"}}, "geometry": {"type": "Point", "coordinates": [136.72736486677985, -17.390033501413843]}}, {"type": "Feature", "properties": {"norad_id": 66911, "name": "1998-067XX", "group": "last-30-days", "lat": -15.492491458037382, "lon": 138.4000745397317, "alt_km": 417.5806686241622, "timestamp": "2025-12-10T23:33:11.624256+00:00", "meta": {"OBJECT_NAME": "1998-067XX", "OBJECT_ID": "1998-067XX", "EPOCH": "2025-12-09T02:48:25.040736", "MEAN_MOTION": 15.51276485, "ECCENTRICITY": 0.00057034, "INCLINATION": 51.6296, "RA_OF_ASC_NODE": 160.3494, "ARG_OF_PERICENTER": 191.2268, "MEAN_ANOMALY": 168.8595, "EPHEMERIS_TYPE": 0, "CLASSIFICATION_TYPE": "U", "NORAD_CAT_ID": 66911, "ELEMENT_SET_NO": 999, "REV_AT_EPOCH": 104, "BSTAR": 0.0014245982, "MEAN_MOTION_DOT": 0.00085582, "MEAN_MOTION_DDOT": 0}, "tle": {"line1": "1 66911U 98067XX  25343.11695649  .00085582  00000+0  14246-2 0  9997", "line2": "2 66911  51.6296 160.3494 0005703 191.2268 168.8595 15.51276485  1046"}}, "geometry": {"type": "Point", "coordinates": [138.4000745397317, -15.492491458037382]}}, {"type": "Feature", "properties": {"norad_id": 66912, "name": "1998-067XY", "group": "last-30-days", "lat": -27.599674586553913, "lon": 126.65561297319805, "alt_km": 418.7864065112117, "timestamp": "2025-12-10T23:33:11.624266+00:00", "meta": {"OBJECT_NAME": "1998-067XY", "OBJECT_ID": "1998-067XY", "EPOCH": "2025-12-10T12:53:00.237984", "MEAN_MOTION": 15.50813363, "ECCENTRICITY": 0.00047702, "INCLINATION": 51.6309, "RA_OF_ASC_NODE": 153.3305, "ARG_OF_PERICENTER": 212.0937, "MEAN_ANOMALY": 147.9763, "EPHEMERIS_TYPE": 0, "CLASSIFICATION_TYPE": "U", "NORAD_CAT_ID": 66912, "ELEMENT_SET_NO": 999, "REV_AT_EPOCH": 126, "BSTAR": 0.0011701261, "MEAN_MOTION_DOT": 0.00068898, "MEAN_MOTION_DDOT": 0}, "tle": {"line1": "1 66912U 98067XY  25344.53680831  .00068898  00000+0  11701-2 0  9996", "line2": "2 66912  51.6309 153.3305 0004770 212.0937 147.9763 15.50813363  1263"}}, "geometry": {"type": "Point", "coordinates": [126.65561297319805, -27.599674586553913]}}, {"type": "Feature", "properties": {"norad_id": 66913, "name": "2025-284A", "group": "last-30-days", "lat": 8.905834654664334, "lon": -49.52540102066416, "alt_km": 504.4932738229154, "timestamp": "2025-12-10T23:33:11.624275+00:00", "meta": {"OBJECT_NAME": "2025-284A", "OBJECT_ID": "2025-284A", "EPOCH": "2025-12-10T14:53:51.346752", "MEAN_MOTION": 15.18900424, "ECCENTRICITY": 0.00119705, "INCLINATION": 80.4047, "RA_OF_ASC_NODE": 132.4507, "ARG_OF_PERICENTER": 210.9367, "MEAN_ANOMALY": 149.1156, "EPHEMERIS_TYPE": 0, "CLASSIFICATION_TYPE": "U", "NORAD_CAT_ID": 66913, "ELEMENT_SET_NO": 999, "REV_AT_EPOCH": 80, "BSTAR": 0.00070286152, "MEAN_MOTION_DOT": 0.00014724, "MEAN_MOTION_DDOT": 0}, "tle": {"line1": "1 66913U 25284A   25344.62073318  .00014724  00000+0  70286-3 0  9997", "line2": "2 66913  80.4047 132.4507 0011970 210.9367 149.1156 15.18900424   807"}}, "geometry": {"type": "Point", "coordinates": [-49.52540102066416, 8.905834654664334]}}, {"type": "Feature", "properties": {"norad_id": 66914, "name": "2025-284B", "group": "last-30-days", "lat": 6.504380391040775, "lon": -49.11074741759012, "alt_km": 510.32743333756935, "timestamp": "2025-12-10T23:33:11.624284+00:00", "meta": {"OBJECT_NAME": "2025-284B", "OBJECT_ID": "2025-284B", "EPOCH": "2025-12-10T16:28:03.403200", "MEAN_MOTION": 15.18856041, "ECCENTRICITY": 0.00081893, "INCLINATION": 80.4057, "RA_OF_ASC_NODE": 132.3684, "ARG_OF_PERICENTER": 253.3487, "MEAN_ANOMALY": 106.6841, "EPHEMERIS_TYPE": 0, "CLASSIFICATION_TYPE": "U", "NORAD_CAT_ID": 66914, "ELEMENT_SET_NO": 999, "REV_AT_EPOCH": 81, "BSTAR": 0.00072727253, "MEAN_MOTION_DOT": 0.00015201, "MEAN_MOTION_DDOT": 0}, "tle": {"line1": "1 66914U 25284B   25344.68615050  .00015201  00000+0  72727-3 0  9992", "line2": "2 66914  80.4057 132.3684 0008189 253.3487 106.6841 15.18856041   811"}}, "geometry": {"type": "Point", "coordinates": [-49.11074741759012, 6.504380391040775]}}, {"type": "Feature", "properties": {"norad_id": 66915, "name": "HULIANWANG DIGUI-105", "group": "last-30-days", "lat": -46.27867151738425, "lon": 63.05945110953302, "alt_km": 873.5329592127437, "timestamp": "2025-12-10T23:33:11.624294+00:00", "meta": {"OBJECT_NAME": "HULIANWANG DIGUI-105", "OBJECT_ID": "2025-285A", "EPOCH": "2025-12-10T15:21:20.752992", "MEAN_MOTION": 14.05466409, "ECCENTRICITY": 0.00081164, "INCLINATION": 50.0035, "RA_OF_ASC_NODE": 125.8396, "ARG_OF_PERICENTER": 275.5111, "MEAN_ANOMALY": 84.4869, "EPHEMERIS_TYPE": 0, "CLASSIFICATION_TYPE": "U", "NORAD_CAT_ID": 66915, "ELEMENT_SET_NO": 999, "REV_AT_EPOCH": 61, "BSTAR": 1.5643483e-05, "MEAN_MOTION_DOT": -1.26e-06, "MEAN_MOTION_DDOT": 0}, "tle": {"line1": "1 66915U 25285A   25344.63982353 -.00000126  00000+0  15643-4 0  9998", "line2": "2 66915  50.0035 125.8396 0008116 275.5111  84.4869 14.05466409   619"}}, "geometry": {"type": "Point", "coordinates": [63.05945110953302, -46.27867151738425]}}, {"type": "Feature", "properties": {"norad_id": 66916, "name": "HULIANWANG DIGUI-106", "group": "last-30-days", "lat": -45.97351374934963, "lon": 64.15734505209352, "alt_km": 874.3218321588938, "timestamp": "2025-12-10T23:33:11.624307+00:00", "meta": {"OBJECT_NAME": "HULIANWANG DIGUI-106", "OBJECT_ID": "2025-285B", "EPOCH": "2025-12-10T15:21:08.019360", "MEAN_MOTION": 14.05512788, "ECCENTRICITY": 0.00069666, "INCLINATION": 50.0045, "RA_OF_ASC_NODE": 125.8401, "ARG_OF_PERICENTER": 270.2213, "MEAN_ANOMALY": 89.7894, "EPHEMERIS_TYPE": 0, "CLASSIFICATION_TYPE": "U", "NORAD_CAT_ID": 66916, "ELEMENT_SET_NO": 999, "REV_AT_EPOCH": 61, "BSTAR": 1.5879747e-05, "MEAN_MOTION_DOT": -1.26e-06, "MEAN_MOTION_DDOT": 0}, "tle": {"line1": "1 66916U 25285B   25344.63967615 -.00000126  00000+0  15880-4 0  9996", "line2": "2 66916  50.0045 125.8401 0006966 270.2213  89.7894 14.05512788   612"}}, "geometry": {"type": "Point", "coordinates": [64.15734505209352, -45.97351374934963]}}, {"type": "Feature", "properties": {"norad_id": 66917, "name": "HULIANWANG DIGUI-107", "group": "last-30-days", "lat": -45.51820806767353, "lon": 65.68668545310263, "alt_km": 873.5172914537288, "timestamp": "2025-12-10T23:33:11.624316+00:00", "meta": {"OBJECT_NAME": "HULIANWANG DIGUI-107", "OBJECT_ID": "2025-285C", "EPOCH": "2025-12-10T15:20:49.298208", "MEAN_MOTION": 14.05578852, "ECCENTRICITY": 0.00075384, "INCLINATION": 50.0009, "RA_OF_ASC_NODE": 125.8355, "ARG_OF_PERICENTER": 277.9313, "MEAN_ANOMALY": 82.0737, "EPHEMERIS_TYPE": 0, "CLASSIFICATION_TYPE": "U", "NORAD_CAT_ID": 66917, "ELEMENT_SET_NO": 999, "REV_AT_EPOCH": 61, "BSTAR": -1.110323e-06, "MEAN_MOTION_DOT": -1.54e-06, "MEAN_MOTION_DDOT": 0}, "tle": {"line1": "1 66917U 25285C   25344.63945947 -.00000154  00000+0 -11103-5 0  9998", "line2": "2 66917  50.0009 125.8355 0007538 277.9313  82.0737 14.05578852   618"}}, "geometry": {"type": "Point", "coordinates": [65.68668545310263, -45.51820806767353]}}, {"type": "Feature", "properties": {"norad_id": 66918, "name": "HULIANWANG DIGUI-108", "group": "last-30-days", "lat": -44.683471338666685, "lon": 68.30948129914478, "alt_km": 873.9718546392178, "timestamp": "2025-12-10T23:33:11.624326+00:00", "meta": {"OBJECT_NAME": "HULIANWANG DIGUI-108", "OBJECT_ID": "2025-285D", "EPOCH": "2025-12-10T15:20:17.494368", "MEAN_MOTION": 14.05703412, "ECCENTRICITY": 0.00064659, "INCLINATION": 50.0042, "RA_OF_ASC_NODE": 125.8356, "ARG_OF_PERICENTER": 272.9836, "MEAN_ANOMALY": 87.0329, "EPHEMERIS_TYPE": 0, "CLASSIFICATION_TYPE": "U", "NORAD_CAT_ID": 66918, "ELEMENT_SET_NO": 999, "REV_AT_EPOCH": 61, "BSTAR": 6.96403e-06, "MEAN_MOTION_DOT": -1.41e-06, "MEAN_MOTION_DDOT": 0}, "tle": {"line1": "1 66918U 25285D   25344.63909137 -.00000141  00000+0  69640-5 0  9994", "line2": "2 66918  50.0042 125.8356 0006465 272.9836  87.0329 14.05703412   614"}}, "geometry": {"type": "Point", "coordinates": [68.30948129914478, -44.683471338666685]}}, {"type": "Feature", "properties": {"norad_id": 66919, "name": "HULIANWANG DIGUI-109", "group": "last-30-days", "lat": -44.57187909523204, "lon": 68.64679604068787, "alt_km": 872.7066097559718, "timestamp": "2025-12-10T23:33:11.624335+00:00", "meta": {"OBJECT_NAME": "HULIANWANG DIGUI-109", "OBJECT_ID": "2025-285E", "EPOCH": "2025-12-10T15:20:12.801120", "MEAN_MOTION": 14.05714535, "ECCENTRICITY": 0.00078687, "INCLINATION": 50.0057, "RA_OF_ASC_NODE": 125.8382, "ARG_OF_PERICENTER": 284.4277, "MEAN_ANOMALY": 75.5755, "EPHEMERIS_TYPE": 0, "CLASSIFICATION_TYPE": "U", "NORAD_CAT_ID": 66919, "ELEMENT_SET_NO": 999, "REV_AT_EPOCH": 61, "BSTAR": -3.76756e-06, "MEAN_MOTION_DOT": -1.58e-06, "MEAN_MOTION_DDOT": 0}, "tle": {"line1": "1 66919U 25285E   25344.63903705 -.00000158  00000+0 -37676-5 0  9993", "line2": "2 66919  50.0057 125.8382 0007868 284.4277  75.5755 14.05714535   618"}}, "geometry": {"type": "Point", "coordinates": [68.64679604068787, -44.57187909523204]}}]}